CCSDS_OMM_VERS,COMMENT,CREATION_DATE,ORIGINATOR,OBJECT_NAME,OBJECT_ID,CENTER_NAME,REF_FRAME,TIME_SYSTEM,MEAN_ELEMENT_THEORY,EPOCH,MEAN_MOTION,ECCENTRICITY,INCLINATION,RA_OF_ASC_NODE,ARG_OF_PERICENTER,MEAN_ANOMALY,EPHEMERIS_TYPE,CLASSIFICATION_TYPE,NORAD_CAT_ID,ELEMENT_SET_NO,REV_AT_EPOCH,BSTAR,MEAN_MOTION_DOT,MEAN_MOTION_DDOT,SEMIMAJOR_AXIS,PERIOD,APOAPSIS,PERIAPSIS,OBJECT_TYPE,RCS_SIZE,COUNTRY_CODE,LAUNCH_DATE,SITE,DECAY_DATE,FILE,GP_ID,TLE_LINE0,TLE_LINE1,TLE_LINE2
"2.0","GENERATED VIA SPACE-TRACK.ORG API","2020-08-23T17:26:13","18 SPCS","COSMOS 1732","1986-015A","EARTH","TEME","UTC","SGP4","2020-08-23T13:44:03.622560","12.40986258","0.00270220","73.6082","271.1965","227.4499","132.4263","0","U","16593","999","56436","-0.00003367000000","-0.00000022","0.0000000000000","7880.562","116.036","1523.721","1481.132","PAYLOAD","LARGE","CIS","1986-02-11","PKMTR","","2807181","159946943","0 COSMOS 1732","1 16593U 86015A   20236.57226415 -.00000022 +00000-0 -33670-4 0  9998","2 16593 073.6082 271.1965 0027022 227.4499 132.4263 12.40986258564363"
"2.0","GENERATED VIA SPACE-TRACK.ORG API","2020-08-23T06:16:09","18 SPCS","COSMOS 1732","1986-015A","EARTH","TEME","UTC","SGP4","2020-08-23T04:03:41.409792","12.40986226","0.00270240","73.6082","271.7366","228.0129","131.8613","0","U","16593","999","56455","-0.00005323600000","-0.00000025","0.0000000000000","7880.562","116.036","1523.723","1481.130","PAYLOAD","LARGE","CIS","1986-02-11","PKMTR","","2806793","159935065","0 COSMOS 1732","1 16593U 86015A   20236.16922928 -.00000025  00000-0 -53236-4 0  9998","2 16593  73.6082 271.7366 0027024 228.0129 131.8613 12.40986226564551"
"2.0","GENERATED VIA SPACE-TRACK.ORG API","2020-08-23T01:13:26","18 SPCS","COSMOS 1732","1986-015A","EARTH","TEME","UTC","SGP4","2020-08-22T20:19:23.636640","12.40986221","0.00270270","73.6083","272.1687","228.4706","131.4019","0","U","16593","999","56427","-0.00002864000000","-0.00000021","0.0000000000000","7880.562","116.036","1523.726","1481.128","PAYLOAD","LARGE","CIS","1986-02-11","PKMTR","","2806767","159916873","0 COSMOS 1732","1 16593U 86015A   20235.84680135 -.00000021 +00000-0 -28640-4 0  9990","2 16593 073.6083 272.1687 0027027 228.4706 131.4019 12.40986221564271"
"2.0","GENERATED VIA SPACE-TRACK.ORG API","2020-08-23T01:13:26","18 SPCS","COSMOS 2498","2014-028C","EARTH","TEME","UTC","SGP4","2020-08-22T19:25:07.764960","12.42887960","0.00208980","82.4502","359.5135","23.3842","336.8185","0","U","39763","999","28368","-0.00009471000000","-0.00000003","0.0000000000000","7872.521","115.859","1510.838","1477.934","PAYLOAD","LARGE","CIS","2014-05-23","PKMTR","","2806767","159930192","0 COSMOS 2498","1 39763U 14028C   20235.80911765 -.00000003 +00000-0 -94710-4 0  9992","2 39763 082.4502 359.5135 0020898 023.3842 336.8185 12.42887960283689"
"2.0","GENERATED VIA SPACE-TRACK.ORG API","2020-08-22T16:55:12","18 SPCS","COSMOS 1732","1986-015A","EARTH","TEME","UTC","SGP4","2020-08-22T12:35:05.863488","12.40986231","0.00270310","73.6084","272.6008","228.9158","130.9551","0","U","16593","999","56423","0.00000183650000","-0.00000017","0.0000000000000","7880.562","116.036","1523.729","1481.125","PAYLOAD","LARGE","CIS","1986-02-11","PKMTR","","2806583","159873569","0 COSMOS 1732","1 16593U 86015A   20235.52437342 -.00000017 +00000-0 +18365-5 0  9993","2 16593 073.6084 272.6008 0027031 228.9158 130.9551 12.40986231564237"
"2.0","GENERATED VIA SPACE-TRACK.ORG API","2020-08-22T14:46:10","18 SPCS","COSMOS 2498","2014-028C","EARTH","TEME","UTC","SGP4","2020-08-22T11:41:28.042368","12.42887977","0.00209060","82.4501","359.7151","24.0680","336.1360","0","U","39763","999","28364","-0.00008089100000","-0.00000001","0.0000000000000","7872.521","115.859","1510.844","1477.928","PAYLOAD","LARGE","CIS","2014-05-23","PKMTR","","2806487","159867069","0 COSMOS 2498","1 39763U 14028C   20235.48713012 -.00000001  00000-0 -80891-4 0  9994","2 39763  82.4501 359.7151 0020906  24.0680 336.1360 12.42887977283648"
"2.0","GENERATED VIA SPACE-TRACK.ORG API","2020-08-22T01:43:14","18 SPCS","COSMOS 2498","2014-028C","EARTH","TEME","UTC","SGP4","2020-08-21T20:14:08.634336","12.42888147","0.00209100","82.4501","0.1185","25.4073","334.8023","0","U","39763","999","28356","0.00002174400000","0.00000013","0.0000000000000","7872.520","115.859","1510.847","1477.924","PAYLOAD","LARGE","CIS","2014-05-23","PKMTR","","2806196","159855814","0 COSMOS 2498","1 39763U 14028C   20234.84315549 +.00000013 +00000-0 +21744-4 0  9999","2 39763 082.4501 000.1185 0020910 025.4073 334.8023 12.42888147283560"
"2.0","GENERATED VIA SPACE-TRACK.ORG API","2020-08-22T01:43:14","18 SPCS","COSMOS 1732","1986-015A","EARTH","TEME","UTC","SGP4","2020-08-21T19:10:25.876704","12.40986216","0.00270350","73.6085","273.5731","229.9227","129.9445","0","U","16593","999","56414","0.00001494000000","-0.00000015","0.0000000000000","7880.562","116.036","1523.732","1481.122","PAYLOAD","LARGE","CIS","1986-02-11","PKMTR","","2806196","159842125","0 COSMOS 1732","1 16593U 86015A   20234.79891061 -.00000015 +00000-0 +14940-4 0  9995","2 16593 073.6085 273.5731 0027035 229.9227 129.9445 12.40986216564146"
"2.0","GENERATED VIA SPACE-TRACK.ORG API","2020-08-21T16:49:28","18 SPCS","COSMOS 1732","1986-015A","EARTH","TEME","UTC","SGP4","2020-08-21T13:22:12.548352","12.40986213","0.00270390","73.6086","273.8972","230.2587","129.6074","0","U","16593","999","56411","0.00003482600000","-0.00000013","0.0000000000000","7880.562","116.036","1523.735","1481.118","PAYLOAD","LARGE","CIS","1986-02-11","PKMTR","","2805939","159816154","0 COSMOS 1732","1 16593U 86015A   20234.55708968 -.00000013 +00000-0 +34826-4 0  9995","2 16593 073.6086 273.8972 0027039 230.2587 129.6074 12.40986213564114"
"2.0","GENERATED VIA SPACE-TRACK.ORG API","2020-08-21T11:26:09","18 SPCS","COSMOS 2498","2014-028C","EARTH","TEME","UTC","SGP4","2020-08-21T08:38:39.101856","12.42888205","0.00209150","82.4498","0.4209","26.4254","333.7893","0","U","39763","999","28350","0.00005946700000","0.00000018","0.0000000000000","7872.520","115.859","1510.850","1477.920","PAYLOAD","LARGE","CIS","2014-05-23","PKMTR","","2805850","159810967","0 COSMOS 2498","1 39763U 14028C   20234.36017479  .00000018  00000-0  59467-4 0  9995","2 39763  82.4498   0.4209 0020915  26.4254 333.7893 12.42888205283504"
"2.0","GENERATED VIA SPACE-TRACK.ORG API","2020-08-21T06:16:09","18 SPCS","COSMOS 1732","1986-015A","EARTH","TEME","UTC","SGP4","2020-08-21T01:45:45.891648","12.40986121","0.00270310","73.6079","274.5451","230.9188","128.9451","0","U","16593","999","56429","0.00003064600000","-0.00000013","0.0000000000000","7880.562","116.036","1523.729","1481.125","PAYLOAD","LARGE","CIS","1986-02-11","PKMTR","","2805592","159804878","0 COSMOS 1732","1 16593U 86015A   20234.07344782 -.00000013  00000-0  30646-4 0  9998","2 16593  73.6079 274.5451 0027031 230.9188 128.9451 12.40986121564290"
"2.0","GENERATED VIA SPACE-TRACK.ORG API","2020-08-21T01:54:52","18 SPCS","COSMOS 2498","2014-028C","EARTH","TEME","UTC","SGP4","2020-08-20T21:03:09.548640","12.42888170","0.00209240","82.4497","0.7230","27.5007","332.7169","0","U","39763","999","28344","0.00004991300000","0.00000017","0.0000000000000","7872.520","115.859","1510.858","1477.913","PAYLOAD","LARGE","CIS","2014-05-23","PKMTR","","2805563","159777067","0 COSMOS 2498","1 39763U 14028C   20233.87719385 +.00000017 +00000-0 +49913-4 0  9999","2 39763 082.4497 000.7230 0020924 027.5007 332.7169 12.42888170283447"
"2.0","GENERATED VIA SPACE-TRACK.ORG API","2020-08-21T01:54:52","18 SPCS","COSMOS 1732","1986-015A","EARTH","TEME","UTC","SGP4","2020-08-20T19:57:32.560704","12.40986110","0.00270320","73.6080","274.8692","231.2568","128.6059","0","U","16593","999","56402","0.00002076400000","-0.00000015","0.0000000000000","7880.562","116.036","1523.730","1481.124","PAYLOAD","LARGE","CIS","1986-02-11","PKMTR","","2805563","159767968","0 COSMOS 1732","1 16593U 86015A   20233.83162686 -.00000015 +00000-0 +20764-4 0  9994","2 16593 073.6080 274.8692 0027032 231.2568 128.6059 12.40986110564029"
"2.0","GENERATED VIA SPACE-TRACK.ORG API","2020-08-20T06:26:10","18 SPCS","COSMOS 2498","2014-028C","EARTH","TEME","UTC","SGP4","2020-08-20T03:39:55.228320","12.42888278","0.00209650","82.4494","1.1768","29.0309","331.1931","0","U","39763","999","28335","0.00011834000000","0.00000026","0.0000000000000","7872.520","115.859","1510.889","1477.880","PAYLOAD","LARGE","CIS","2014-05-23","PKMTR","","2805040","159753845","0 COSMOS 2498","1 39763U 14028C   20233.15272255  .00000026  00000-0  11834-3 0  9990","2 39763  82.4494   1.1768 0020965  29.0309 331.1931 12.42888278283351"
"2.0","GENERATED VIA SPACE-TRACK.ORG API","2020-08-20T02:56:29","18 SPCS","COSMOS 1732","1986-015A","EARTH","TEME","UTC","SGP4","2020-08-19T20:44:39.250752","12.40986193","0.00270470","73.6089","276.1657","232.6032","127.2549","0","U","16593","999","56390","0.00016595000000","0.00000005","0.0000000000000","7880.562","116.036","1523.741","1481.112","PAYLOAD","LARGE","CIS","1986-02-11","PKMTR","","2804968","159734398","0 COSMOS 1732","1 16593U 86015A   20232.86434318 +.00000005 +00000-0 +16595-3 0  9994","2 16593 073.6089 276.1657 0027047 232.6032 127.2549 12.40986193563907"
"2.0","GENERATED VIA SPACE-TRACK.ORG API","2020-08-20T02:56:29","18 SPCS","COSMOS 2498","2014-028C","EARTH","TEME","UTC","SGP4","2020-08-19T18:00:20.608128","12.42888292","0.00209800","82.4491","1.4285","29.9009","330.3262","0","U","39763","999","28330","0.00014263000000","0.00000030","0.0000000000000","7872.520","115.859","1510.901","1477.868","PAYLOAD","LARGE","CIS","2014-05-23","PKMTR","","2804968","159747218","0 COSMOS 2498","1 39763U 14028C   20232.75023852 +.00000030 +00000-0 +14263-3 0  9996","2 39763 082.4491 001.4285 0020980 029.9009 330.3262 12.42888292283307"
